EUTELSAT 21B            
1 38992U 12062B   25325.09261696  .00000152  00000+0  00000+0 0  9994
2 38992   0.0687 353.1729 0003258 257.6340 224.5209  1.00268671 47746
EUTELSAT 70B            
1 39020U 12069A   25325.10232367 -.00000022  00000+0  00000+0 0  9996
2 39020   0.0654   5.1433 0004477 229.2489 293.3166  1.00271590 47427
EUTELSAT 117 WEST A     
1 39122U 13012A   25324.63715868  .00000008  00000+0  00000+0 0  9990
2 39122   0.0153 320.4116 0002831 284.2711 287.8258  1.00273092 46345
EUTELSAT 7B             
1 39163U 13022A   25325.05878022  .00000070  00000+0  00000+0 0  9994
2 39163   0.0714   8.9754 0003532 305.3460 134.1760  1.00270607 45872
EXPRESS-AT1             
1 39612U 14010A   25325.17079075  .00000100  00000+0  00000+0 0  9999
2 39612   0.0140 276.4388 0000903 153.8671 107.6309  1.00271530 42730
EXPRESS-AT2             
1 39613U 14010B   25325.18743084 -.00000259  00000+0  00000+0 0  9995
2 39613   0.0156 288.2361 0001161   7.6203 331.9459  1.00270876 42419
EUTELSAT 3B             
1 39773U 14030A   25325.05878022  .00000042  00000+0  00000+0 0  9990
2 39773   0.0705  18.5738 0004452 202.1311 223.8903  1.00272987 41985
EUTELSAT 115 WEST B     
1 40425U 15010B   25324.49479841 -.00000004  00000+0  00000+0 0  9997
2 40425   0.0178 146.0777 0000217  69.7689 267.1709  1.00275346 39305
